ONEWEB-0456             
1 51646U 22012AA  23262.76169535  .00000639  00000+0  17932-2 0  9997
2 51646  87.8843 235.1206 0002305  78.5635 281.5751 13.10375410 79487
ONEWEB-0457             
1 51647U 22012AB  23263.42614456  .00004804  00000+0  13723-1 0  9990
2 51647  87.8846 234.9920 0001915  94.7889 265.3457 13.10347319 79589
ONEWEB-0458             
1 51648U 22012AC  23262.68370786  .00000643  00000+0  18058-2 0  9997
2 51648  87.8844 235.1518 0002144  90.2322 269.9051 13.10375699 79449
ONEWEB-0461             
1 51649U 22012AD  23262.40168286  .00000064  00000+0  13266-3 0  9992
2 51649  87.9342 204.9014 0001882  80.9749 279.1595 13.17647142 83258
ONEWEB-0463             
1 51650U 22012AE  23262.91636679  .00000087  00000+0  19222-3 0  9999
2 51650  87.9234 204.8551 0001817  78.2190 281.9145 13.17648960 83119
ONEWEB-0464             
1 51651U 22012AF  23262.37500239  .00000746  00000+0  21006-2 0  9996
2 51651  87.8843 235.2016 0002491  80.7984 279.3425 13.10376586 79423
ONEWEB-0468             
1 51652U 22012AG  23262.68694097  .00000675  00000+0  18976-2 0  9990
2 51652  87.8842 235.1328 0002058  86.2651 273.8711 13.10370862 79438
ONEWEB-0473             
1 51653U 22012AH  23262.90139519  .00000194  00000+0  51934-3 0  9997
2 51653  87.8846 235.0943 0002125  86.2594 273.8776 13.10373125 79476
